CCSDS_OMM_VERS = 2.0
CREATION_DATE  = 
ORIGINATOR     = 

OBJECT_NAME    = UNKNOWN
OBJECT_ID      = 
CENTER_NAME    = EARTH
REF_FRAME      = TEME
TIME_SYSTEM    = UTC
MEAN_ELEMENT_THEORY = SGP/SGP4

EPOCH          = 2025-12-11T11:16:38.140896
MEAN_MOTION    = 9.14479675
ECCENTRICITY   = .2857691
INCLINATION    = 84.0663
RA_OF_ASC_NODE = 155.0889
ARG_OF_PERICENTER = 28.4461
MEAN_ANOMALY   = 344.6381

EPHEMERIS_TYPE = 0
CLASSIFICATION_TYPE = U
NORAD_CAT_ID   = 89484
ELEMENT_SET_NO = 999
REV_AT_EPOCH   = 35532
BSTAR          = .42345E-1
MEAN_MOTION_DOT = .56714E-3
MEAN_MOTION_DDOT = 0

CCSDS_OMM_VERS = 2.0
CREATION_DATE  = 
ORIGINATOR     = 

OBJECT_NAME    = UNKNOWN
OBJECT_ID      = 
CENTER_NAME    = EARTH
REF_FRAME      = TEME
TIME_SYSTEM    = UTC
MEAN_ELEMENT_THEORY = SGP/SGP4

EPOCH          = 2025-12-07T15:17:57.333696
MEAN_MOTION    = 14.16222393
ECCENTRICITY   = .0083166
INCLINATION    = 99.0243
RA_OF_ASC_NODE = 50.4311
ARG_OF_PERICENTER = 55.1531
MEAN_ANOMALY   = 305.7428

EPHEMERIS_TYPE = 0
CLASSIFICATION_TYPE = U
NORAD_CAT_ID   = 89493
ELEMENT_SET_NO = 999
REV_AT_EPOCH   = 46322
BSTAR          = .21861E-2
MEAN_MOTION_DOT = .4435E-4
MEAN_MOTION_DDOT = 0

CCSDS_OMM_VERS = 2.0
CREATION_DATE  = 
ORIGINATOR     = 

OBJECT_NAME    = UNKNOWN
OBJECT_ID      = 
CENTER_NAME    = EARTH
REF_FRAME      = TEME
TIME_SYSTEM    = UTC
MEAN_ELEMENT_THEORY = SGP/SGP4

EPOCH          = 2025-12-11T00:17:36.525984
MEAN_MOTION    = 14.16177706
ECCENTRICITY   = .0081631
INCLINATION    = 99.0254
RA_OF_ASC_NODE = 53.7408
ARG_OF_PERICENTER = 45.8918
MEAN_ANOMALY   = 314.8934

EPHEMERIS_TYPE = 0
CLASSIFICATION_TYPE = U
NORAD_CAT_ID   = 89494
ELEMENT_SET_NO = 999
REV_AT_EPOCH   = 46355
BSTAR          = .18107E-2
MEAN_MOTION_DOT = .3657E-4
MEAN_MOTION_DDOT = 0

CCSDS_OMM_VERS = 2.0
CREATION_DATE  = 
ORIGINATOR     = 

OBJECT_NAME    = UNKNOWN
OBJECT_ID      = 
CENTER_NAME    = EARTH
REF_FRAME      = TEME
TIME_SYSTEM    = UTC
MEAN_ELEMENT_THEORY = SGP/SGP4

EPOCH          = 2025-12-06T07:05:18.110400
MEAN_MOTION    = 12.96091868
ECCENTRICITY   = .00292855
INCLINATION    = 90.2276
RA_OF_ASC_NODE = 343.7874
ARG_OF_PERICENTER = 265.3813
MEAN_ANOMALY   = 94.3962

EPHEMERIS_TYPE = 0
CLASSIFICATION_TYPE = U
NORAD_CAT_ID   = 270000
ELEMENT_SET_NO = 999
REV_AT_EPOCH   = 28510
BSTAR          = .14567059E-2
MEAN_MOTION_DOT = .422E-5
MEAN_MOTION_DDOT = 0

CCSDS_OMM_VERS = 2.0
CREATION_DATE  = 
ORIGINATOR     = 

OBJECT_NAME    = UNKNOWN
OBJECT_ID      = 
CENTER_NAME    = EARTH
REF_FRAME      = TEME
TIME_SYSTEM    = UTC
MEAN_ELEMENT_THEORY = SGP/SGP4

EPOCH          = 2025-12-10T13:26:15.943200
MEAN_MOTION    = 12.45682652
ECCENTRICITY   = .00446514
INCLINATION    = 101.8217
RA_OF_ASC_NODE = 92.7988
ARG_OF_PERICENTER = 219.4734
MEAN_ANOMALY   = 140.3078

EPHEMERIS_TYPE = 0
CLASSIFICATION_TYPE = U
NORAD_CAT_ID   = 270001
ELEMENT_SET_NO = 999
REV_AT_EPOCH   = 27466
BSTAR          = .11466711E-2
MEAN_MOTION_DOT = .121E-5
MEAN_MOTION_DDOT = 0

CCSDS_OMM_VERS = 2.0
CREATION_DATE  = 
ORIGINATOR     = 

OBJECT_NAME    = UNKNOWN
OBJECT_ID      = 
CENTER_NAME    = EARTH
REF_FRAME      = TEME
TIME_SYSTEM    = UTC
MEAN_ELEMENT_THEORY = SGP/SGP4

EPOCH          = 2025-12-05T20:39:14.789376
MEAN_MOTION    = 13.06543366
ECCENTRICITY   = .05136218
INCLINATION    = 99.6679
RA_OF_ASC_NODE = 19.3206
ARG_OF_PERICENTER = 255.0283
MEAN_ANOMALY   = 99.3443

EPHEMERIS_TYPE = 0
CLASSIFICATION_TYPE = U
NORAD_CAT_ID   = 270003
ELEMENT_SET_NO = 999
REV_AT_EPOCH   = 28644
BSTAR          = .44119417E-2
MEAN_MOTION_DOT = .2724E-4
MEAN_MOTION_DDOT = 0

CCSDS_OMM_VERS = 2.0
CREATION_DATE  = 
ORIGINATOR     = 

OBJECT_NAME    = UNKNOWN
OBJECT_ID      = 
CENTER_NAME    = EARTH
REF_FRAME      = TEME
TIME_SYSTEM    = UTC
MEAN_ELEMENT_THEORY = SGP/SGP4

EPOCH          = 2025-12-12T03:25:31.344096
MEAN_MOTION    = 12.23854522
ECCENTRICITY   = .0164459
INCLINATION    = 101.6989
RA_OF_ASC_NODE = 130.7797
ARG_OF_PERICENTER = 162.1730
MEAN_ANOMALY   = 198.5187

EPHEMERIS_TYPE = 0
CLASSIFICATION_TYPE = U
NORAD_CAT_ID   = 270004
ELEMENT_SET_NO = 999
REV_AT_EPOCH   = 27010
BSTAR          = .96593986E-3
MEAN_MOTION_DOT = .69E-6
MEAN_MOTION_DDOT = 0

CCSDS_OMM_VERS = 2.0
CREATION_DATE  = 
ORIGINATOR     = 

OBJECT_NAME    = UNKNOWN
OBJECT_ID      = 
CENTER_NAME    = EARTH
REF_FRAME      = TEME
TIME_SYSTEM    = UTC
MEAN_ELEMENT_THEORY = SGP/SGP4

EPOCH          = 2025-12-09T19:46:54.268608
MEAN_MOTION    = 12.16556551
ECCENTRICITY   = .03586293
INCLINATION    = 103.0689
RA_OF_ASC_NODE = 173.1483
ARG_OF_PERICENTER = 179.7939
MEAN_ANOMALY   = 180.3312

EPHEMERIS_TYPE = 0
CLASSIFICATION_TYPE = U
NORAD_CAT_ID   = 270005
ELEMENT_SET_NO = 999
REV_AT_EPOCH   = 26726
BSTAR          = .1047683E-1
MEAN_MOTION_DOT = .1223E-4
MEAN_MOTION_DDOT = 0

CCSDS_OMM_VERS = 2.0
CREATION_DATE  = 
ORIGINATOR     = 

OBJECT_NAME    = UNKNOWN
OBJECT_ID      = 
CENTER_NAME    = EARTH
REF_FRAME      = TEME
TIME_SYSTEM    = UTC
MEAN_ELEMENT_THEORY = SGP/SGP4

EPOCH          = 2025-12-11T15:18:06.791904
MEAN_MOTION    = 12.38821106
ECCENTRICITY   = .00937795
INCLINATION    = 102.2542
RA_OF_ASC_NODE = 307.7831
ARG_OF_PERICENTER = 274.6327
MEAN_ANOMALY   = 84.4029

EPHEMERIS_TYPE = 0
CLASSIFICATION_TYPE = U
NORAD_CAT_ID   = 270006
ELEMENT_SET_NO = 999
REV_AT_EPOCH   = 27335
BSTAR          = .24973155E-3
MEAN_MOTION_DOT = -.13E-6
MEAN_MOTION_DDOT = 0

CCSDS_OMM_VERS = 2.0
CREATION_DATE  = 
ORIGINATOR     = 

OBJECT_NAME    = UNKNOWN
OBJECT_ID      = 
CENTER_NAME    = EARTH
REF_FRAME      = TEME
TIME_SYSTEM    = UTC
MEAN_ELEMENT_THEORY = SGP/SGP4

EPOCH          = 2025-12-10T12:20:32.429472
MEAN_MOTION    = 12.91530532
ECCENTRICITY   = .05652308
INCLINATION    = 31.9971
RA_OF_ASC_NODE = 50.5716
ARG_OF_PERICENTER = 321.3994
MEAN_ANOMALY   = 34.7453

EPHEMERIS_TYPE = 0
CLASSIFICATION_TYPE = U
NORAD_CAT_ID   = 270007
ELEMENT_SET_NO = 999
REV_AT_EPOCH   = 28527
BSTAR          = .38186431E-3
MEAN_MOTION_DOT = .235E-5
MEAN_MOTION_DDOT = 0

CCSDS_OMM_VERS = 2.0
CREATION_DATE  = 
ORIGINATOR     = 

OBJECT_NAME    = UNKNOWN
OBJECT_ID      = 
CENTER_NAME    = EARTH
REF_FRAME      = TEME
TIME_SYSTEM    = UTC
MEAN_ELEMENT_THEORY = SGP/SGP4

EPOCH          = 2025-11-26T10:14:04.396992
MEAN_MOTION    = 12.97584605
ECCENTRICITY   = .00329447
INCLINATION    = 90.2678
RA_OF_ASC_NODE = 23.0652
ARG_OF_PERICENTER = 234.6584
MEAN_ANOMALY   = 125.1456

EPHEMERIS_TYPE = 0
CLASSIFICATION_TYPE = U
NORAD_CAT_ID   = 270008
ELEMENT_SET_NO = 999
REV_AT_EPOCH   = 28416
BSTAR          = .93226048E-3
MEAN_MOTION_DOT = .279E-5
MEAN_MOTION_DDOT = 0

CCSDS_OMM_VERS = 2.0
CREATION_DATE  = 
ORIGINATOR     = 

OBJECT_NAME    = UNKNOWN
OBJECT_ID      = 
CENTER_NAME    = EARTH
REF_FRAME      = TEME
TIME_SYSTEM    = UTC
MEAN_ELEMENT_THEORY = SGP/SGP4

EPOCH          = 2025-11-25T09:24:59.567904
MEAN_MOTION    = 11.90738036
ECCENTRICITY   = .00518497
INCLINATION    = 82.5035
RA_OF_ASC_NODE = 218.2171
ARG_OF_PERICENTER = 118.7454
MEAN_ANOMALY   = 241.8818

EPHEMERIS_TYPE = 0
CLASSIFICATION_TYPE = U
NORAD_CAT_ID   = 270009
ELEMENT_SET_NO = 999
REV_AT_EPOCH   = 26075
BSTAR          = .59700463E-3
MEAN_MOTION_DOT = .52E-6
MEAN_MOTION_DDOT = 0

CCSDS_OMM_VERS = 2.0
CREATION_DATE  = 
ORIGINATOR     = 

OBJECT_NAME    = UNKNOWN
OBJECT_ID      = 
CENTER_NAME    = EARTH
REF_FRAME      = TEME
TIME_SYSTEM    = UTC
MEAN_ELEMENT_THEORY = SGP/SGP4

EPOCH          = 2025-12-12T07:10:44.552064
MEAN_MOTION    = 12.80206330
ECCENTRICITY   = .03291102
INCLINATION    = 103.8910
RA_OF_ASC_NODE = 346.4501
ARG_OF_PERICENTER = 132.5191
MEAN_ANOMALY   = 230.4185

EPHEMERIS_TYPE = 0
CLASSIFICATION_TYPE = U
NORAD_CAT_ID   = 270010
ELEMENT_SET_NO = 999
REV_AT_EPOCH   = 28030
BSTAR          = .23520583E-1
MEAN_MOTION_DOT = .6689E-4
MEAN_MOTION_DDOT = 0

CCSDS_OMM_VERS = 2.0
CREATION_DATE  = 
ORIGINATOR     = 

OBJECT_NAME    = UNKNOWN
OBJECT_ID      = 
CENTER_NAME    = EARTH
REF_FRAME      = TEME
TIME_SYSTEM    = UTC
MEAN_ELEMENT_THEORY = SGP/SGP4

EPOCH          = 2025-12-11T07:14:09.562848
MEAN_MOTION    = 13.55028886
ECCENTRICITY   = .01003958
INCLINATION    = 101.0611
RA_OF_ASC_NODE = 269.3506
ARG_OF_PERICENTER = 351.0233
MEAN_ANOMALY   = 8.9102

EPHEMERIS_TYPE = 0
CLASSIFICATION_TYPE = U
NORAD_CAT_ID   = 270011
ELEMENT_SET_NO = 999
REV_AT_EPOCH   = 29123
BSTAR          = .53928515E-1
MEAN_MOTION_DOT = .38496E-3
MEAN_MOTION_DDOT = 0

CCSDS_OMM_VERS = 2.0
CREATION_DATE  = 
ORIGINATOR     = 

OBJECT_NAME    = UNKNOWN
OBJECT_ID      = 
CENTER_NAME    = EARTH
REF_FRAME      = TEME
TIME_SYSTEM    = UTC
MEAN_ELEMENT_THEORY = SGP/SGP4

EPOCH          = 2025-12-08T18:59:35.892096
MEAN_MOTION    = 12.97023644
ECCENTRICITY   = .00334404
INCLINATION    = 90.2290
RA_OF_ASC_NODE = 355.1659
ARG_OF_PERICENTER = 214.4010
MEAN_ANOMALY   = 145.4946

EPHEMERIS_TYPE = 0
CLASSIFICATION_TYPE = U
NORAD_CAT_ID   = 270012
ELEMENT_SET_NO = 999
REV_AT_EPOCH   = 28566
BSTAR          = .21483245E-2
MEAN_MOTION_DOT = .628E-5
MEAN_MOTION_DDOT = 0

CCSDS_OMM_VERS = 2.0
CREATION_DATE  = 
ORIGINATOR     = 

OBJECT_NAME    = UNKNOWN
OBJECT_ID      = 
CENTER_NAME    = EARTH
REF_FRAME      = TEME
TIME_SYSTEM    = UTC
MEAN_ELEMENT_THEORY = SGP/SGP4

EPOCH          = 2025-12-10T15:12:52.914528
MEAN_MOTION    = 12.16555261
ECCENTRICITY   = .01537089
INCLINATION    = 102.6769
RA_OF_ASC_NODE = 308.2923
ARG_OF_PERICENTER = 206.9018
MEAN_ANOMALY   = 152.3997

EPHEMERIS_TYPE = 0
CLASSIFICATION_TYPE = U
NORAD_CAT_ID   = 270013
ELEMENT_SET_NO = 999
REV_AT_EPOCH   = 26828
BSTAR          = .50691126E-3
MEAN_MOTION_DOT = .7E-7
MEAN_MOTION_DDOT = 0

